{
  "type": "FeatureCollection",
  "features": [
    {
      "type": "Feature",
      "properties": {
        "norad_id": 31816,
        "name": "FENGYUN 1C DEB",
        "group": "fengyun-1c-debris",
        "lat": -10.83706702032699,
        "lon": 96.34285107336461,
        "alt_km": 1006.4765014042887,
        "timestamp": "2025-12-06T03:35:02.155606+00:00",
        "meta_object_name": "FENGYUN 1C DEB",
        "meta_object_id": "1999-025CHE",
        "meta_epoch": "2025-11-23T07:26:54.652128",
        "meta_mean_motion": 13.94096492,
        "meta_eccentricity": 0.01210461,
        "meta_inclination": 98.9829,
        "meta_ra_of_asc_node": 82.1237,
        "meta_arg_of_pericenter": 207.0018,
        "meta_mean_anomaly": 180.5984,
        "meta_ephemeris_type": 0,
        "meta_classification_type": "U",
        "meta_norad_cat_id": 31816,
        "meta_element_set_no": 999,
        "meta_rev_at_epoch": 93423,
        "meta_bstar": 0.0012545957,
        "meta_mean_motion_dot": 1.723e-05,
        "meta_mean_motion_ddot": 0,
        "tle_line1": "1 31816U 99025CHE 25327.31035477  .00001723  00000+0  12546-2 0  9995",
        "tle_line2": "2 31816  98.9829  82.1237 0121046 207.0018 180.5984 13.94096492934234"
      },
      "geometry": {
        "type": "Point",
        "coordinates": [
          96.34285107336461,
          -10.83706702032699
        ]
      }
    },
    {
      "type": "Feature",
      "properties": {
        "norad_id": 31817,
        "name": "FENGYUN 1C DEB",
        "group": "fengyun-1c-debris",
        "lat": -35.23716252782076,
        "lon": -17.680303561888426,
        "alt_km": 710.5916987226447,
        "timestamp": "2025-12-06T03:35:02.155617+00:00",
        "meta_object_name": "FENGYUN 1C DEB",
        "meta_object_id": "1999-025CHF",
        "meta_epoch": "2025-12-04T05:51:59.274720",
        "meta_mean_motion": 14.65485668,
        "meta_eccentricity": 0.0062928,
        "meta_inclination": 98.9183,
        "meta_ra_of_asc_node": 333.8855,
        "meta_arg_of_pericenter": 101.357,
        "meta_mean_anomaly": 259.4709,
        "meta_ephemeris_type": 0,
        "meta_classification_type": "U",
        "meta_norad_cat_id": 31817,
        "meta_element_set_no": 999,
        "meta_rev_at_epoch": 71281,
        "meta_bstar": 0.0028956,
        "meta_mean_motion_dot": 0.00016126,
        "meta_mean_motion_ddot": 0,
        "tle_line1": "1 31817U 99025CHF 25338.24443605  .00016126  00000+0  28956-2 0  9991",
        "tle_line2": "2 31817  98.9183 333.8855 0062928 101.3570 259.4709 14.65485668712817"
      },
      "geometry": {
        "type": "Point",
        "coordinates": [
          -17.680303561888426,
          -35.23716252782076
        ]
      }
    },
    {
      "type": "Feature",
      "properties": {
        "norad_id": 31819,
        "name": "FENGYUN 1C DEB",
        "group": "fengyun-1c-debris",
        "lat": 9.262706943893184,
        "lon": -29.763429587682992,
        "alt_km": 738.0851076241715,
        "timestamp": "2025-12-06T03:35:02.155628+00:00",
        "meta_object_name": "FENGYUN 1C DEB",
        "meta_object_id": "1999-025CHH",
        "meta_epoch": "2025-12-01T19:26:11.468544",
        "meta_mean_motion": 14.30134028,
        "meta_eccentricity": 0.00875682,
        "meta_inclination": 98.4736,
        "meta_ra_of_asc_node": 327.4043,
        "meta_arg_of_pericenter": 352.8381,
        "meta_mean_anomaly": 7.1544,
        "meta_ephemeris_type": 0,
        "meta_classification_type": "U",
        "meta_norad_cat_id": 31819,
        "meta_element_set_no": 999,
        "meta_rev_at_epoch": 96537,
        "meta_bstar": 0.00045097789,
        "meta_mean_motion_dot": 1.173e-05,
        "meta_mean_motion_ddot": 0,
        "tle_line1": "1 31819U 99025CHH 25335.80985496  .00001173  00000+0  45098-3 0  9994",
        "tle_line2": "2 31819  98.4736 327.4043 0087568 352.8381   7.1544 14.30134028965375"
      },
      "geometry": {
        "type": "Point",
        "coordinates": [
          -29.763429587682992,
          9.262706943893184
        ]
      }
    },
    {
      "type": "Feature",
      "properties": {
        "norad_id": 31820,
        "name": "FENGYUN 1C DEB",
        "group": "fengyun-1c-debris",
        "lat": -70.38364584747197,
        "lon": -56.08933809584248,
        "alt_km": 679.8864852688812,
        "timestamp": "2025-12-06T03:35:02.155638+00:00",
        "meta_object_name": "FENGYUN 1C DEB",
        "meta_object_id": "1999-025CHJ",
        "meta_epoch": "2025-12-05T05:31:51.203136",
        "meta_mean_motion": 14.91947844,
        "meta_eccentricity": 0.01510454,
        "meta_inclination": 98.9594,
        "meta_ra_of_asc_node": 149.1402,
        "meta_arg_of_pericenter": 36.1593,
        "meta_mean_anomaly": 324.9721,
        "meta_ephemeris_type": 0,
        "meta_classification_type": "U",
        "meta_norad_cat_id": 31820,
        "meta_element_set_no": 999,
        "meta_rev_at_epoch": 98144,
        "meta_bstar": 0.0016610568,
        "meta_mean_motion_dot": 0.00020946,
        "meta_mean_motion_ddot": 0,
        "tle_line1": "1 31820U 99025CHJ 25339.23045374  .00020946  00000+0  16611-2 0  9996",
        "tle_line2": "2 31820  98.9594 149.1402 0151045  36.1593 324.9721 14.91947844981449"
      },
      "geometry": {
        "type": "Point",
        "coordinates": [
          -56.08933809584248,
          -70.38364584747197
        ]
      }
    },
    {
      "type": "Feature",
      "properties": {
        "norad_id": 31821,
        "name": "FENGYUN 1C DEB",
        "group": "fengyun-1c-debris",
        "lat": 14.477927320523591,
        "lon": -136.73010855126697,
        "alt_km": 605.0813470296698,
        "timestamp": "2025-12-06T03:35:02.155649+00:00",
        "meta_object_name": "FENGYUN 1C DEB",
        "meta_object_id": "1999-025CHK",
        "meta_epoch": "2025-12-03T22:12:36.893664",
        "meta_mean_motion": 14.41372879,
        "meta_eccentricity": 0.0221705,
        "meta_inclination": 98.156,
        "meta_ra_of_asc_node": 223.2667,
        "meta_arg_of_pericenter": 41.081,
        "meta_mean_anomaly": 320.6839,
        "meta_ephemeris_type": 0,
        "meta_classification_type": "U",
        "meta_norad_cat_id": 31821,
        "meta_element_set_no": 999,
        "meta_rev_at_epoch": 93534,
        "meta_bstar": 0.011009,
        "meta_mean_motion_dot": 0.00048066,
        "meta_mean_motion_ddot": 0,
        "tle_line1": "1 31821U 99025CHK 25337.92542701  .00048066  00000+0  11009-1 0  9995",
        "tle_line2": "2 31821  98.1560 223.2667 0221705  41.0810 320.6839 14.41372879935346"
      },
      "geometry": {
        "type": "Point",
        "coordinates": [
          -136.73010855126697,
          14.477927320523591
        ]
      }
    },
    {
      "type": "Feature",
      "properties": {
        "norad_id": 31823,
        "name": "FENGYUN 1C DEB",
        "group": "fengyun-1c-debris",
        "lat": -23.549821450245652,
        "lon": 69.52653328091175,
        "alt_km": 683.9519459340154,
        "timestamp": "2025-12-06T03:35:02.155659+00:00",
        "meta_object_name": "FENGYUN 1C DEB",
        "meta_object_id": "1999-025CHM",
        "meta_epoch": "2025-12-02T11:12:25.018272",
        "meta_mean_motion": 14.6544758,
        "meta_eccentricity": 0.0037092,
        "meta_inclination": 99.5128,
        "meta_ra_of_asc_node": 61.0788,
        "meta_arg_of_pericenter": 250.3625,
        "meta_mean_anomaly": 109.3568,
        "meta_ephemeris_type": 0,
        "meta_classification_type": "U",
        "meta_norad_cat_id": 31823,
        "meta_element_set_no": 999,
        "meta_rev_at_epoch": 96567,
        "meta_bstar": 0.0016235378,
        "meta_mean_motion_dot": 8.822e-05,
        "meta_mean_motion_ddot": 0,
        "tle_line1": "1 31823U 99025CHM 25336.46695623  .00008822  00000+0  16235-2 0  9990",
        "tle_line2": "2 31823  99.5128  61.0788 0037092 250.3625 109.3568 14.65447580965676"
      },
      "geometry": {
        "type": "Point",
        "coordinates": [
          69.52653328091175,
          -23.549821450245652
        ]
      }
    },
    {
      "type": "Feature",
      "properties": {
        "norad_id": 31825,
        "name": "FENGYUN 1C DEB",
        "group": "fengyun-1c-debris",
        "lat": 9.844222939069583,
        "lon": -21.58075427129288,
        "alt_km": 704.6420675500594,
        "timestamp": "2025-12-06T03:35:02.155669+00:00",
        "meta_object_name": "FENGYUN 1C DEB",
        "meta_object_id": "1999-025CHP",
        "meta_epoch": "2025-12-04T19:26:41.262720",
        "meta_mean_motion": 14.21602569,
        "meta_eccentricity": 0.01661392,
        "meta_inclination": 98.5899,
        "meta_ra_of_asc_node": 338.6183,
        "meta_arg_of_pericenter": 1.3581,
        "meta_mean_anomaly": 358.8016,
        "meta_ephemeris_type": 0,
        "meta_classification_type": "U",
        "meta_norad_cat_id": 31825,
        "meta_element_set_no": 999,
        "meta_rev_at_epoch": 95509,
        "meta_bstar": 0.0014524042,
        "meta_mean_motion_dot": 3.621e-05,
        "meta_mean_motion_ddot": 0,
        "tle_line1": "1 31825U 99025CHP 25338.81019980  .00003621  00000+0  14524-2 0  9990",
        "tle_line2": "2 31825  98.5899 338.6183 0166139   1.3581 358.8016 14.21602569955090"
      },
      "geometry": {
        "type": "Point",
        "coordinates": [
          -21.58075427129288,
          9.844222939069583
        ]
      }
    }
  ]
}